start=new Date('2022-04-18T00:00:00.000Z').valueOf();
sats=[{"ELEMENT_SET_NO":"999","MEAN_ELEMENT_THEORY":"SGP4","INCLINATION":"53.0543","GP_ID":"201495387","FILE":"3405839","DECAY_DATE":null,"PERIAPSIS":"546.112","MEAN_ANOMALY":"303.8904","MEAN_MOTION_DDOT":"0.0000000000000","ECCENTRICITY":"0.00015770","OBJECT_ID":"2021-009BJ","OBJECT_TYPE":"PAYLOAD","ARG_OF_PERICENTER":"56.2235","RA_OF_ASC_NODE":"274.5190","EPHEMERIS_TYPE":"0","TLE_LINE1":"1 47604U 21009BJ  22107.84603203  .00002024  00000-0  15475-3 0  9994","EPOCH":"2022-04-17T20:18:17.167392","CLASSIFICATION_TYPE":"U","SITE":"AFETR","RCS_SIZE":"LARGE","OBJECT_NAME":"STARLINK-2021","MEAN_MOTION":"15.06403107","BSTAR":"0.00015475000000","LAUNCH_DATE":"2021-02-04","TIME_SYSTEM":"UTC","NORAD_CAT_ID":"47604","APOAPSIS":"548.296","REV_AT_EPOCH":"6663","SEMIMAJOR_AXIS":"6925.339","PERIOD":"95.592","COUNTRY_CODE":"US","MEAN_MOTION_DOT":"0.00002024","REF_FRAME":"TEME","TLE_LINE2":"2 47604  53.0543 274.5190 0001577  56.2235 303.8904 15.06403107 66639","CENTER_NAME":"EARTH"},{"MEAN_MOTION":"15.76105690","BSTAR":"0.00079048000000","LAUNCH_DATE":"2021-02-04","TIME_SYSTEM":"UTC","APOAPSIS":"344.239","NORAD_CAT_ID":"47605","SEMIMAJOR_AXIS":"6719.624","REV_AT_EPOCH":"6734","PERIOD":"91.364","COUNTRY_CODE":"US","MEAN_MOTION_DOT":"0.00127175","REF_FRAME":"TEME","TLE_LINE2":"2 47605  53.0511 221.7659 0004093 346.9041  13.1872 15.76105690 67346","CENTER_NAME":"EARTH","ELEMENT_SET_NO":"999","MEAN_ELEMENT_THEORY":"SGP4","INCLINATION":"53.0511","GP_ID":"201465900","FILE":"3405596","DECAY_DATE":null,"PERIAPSIS":"338.738","MEAN_ANOMALY":"13.1872","MEAN_MOTION_DDOT":"0.0000000000000","ECCENTRICITY":"0.00040930","OBJECT_ID":"2021-009BK","OBJECT_TYPE":"PAYLOAD","ARG_OF_PERICENTER":"346.9041","RA_OF_ASC_NODE":"221.7659","EPHEMERIS_TYPE":"0","TLE_LINE1":"1 47605U 21009BK  22107.60371833  .00127175  00000-0  79048-3 0  9991","EPOCH":"2022-04-17T14:29:21.263712","CLASSIFICATION_TYPE":"U","SITE":"AFETR","RCS_SIZE":"LARGE","OBJECT_NAME":"STARLINK-2023"},{"NORAD_CAT_ID":"47606","APOAPSIS":"548.286","LAUNCH_DATE":"2021-02-04","TIME_SYSTEM":"UTC","REV_AT_EPOCH":"6663","SEMIMAJOR_AXIS":"6925.353","MEAN_MOTION":"15.06398449","BSTAR":"0.00009578200000","TLE_LINE2":"2 47606  53.0551 274.5162 0001542  69.9223 290.1932 15.06398449 66630","CENTER_NAME":"EARTH","COUNTRY_CODE":"US","PERIOD":"95.592","REF_FRAME":"TEME","MEAN_MOTION_DOT":"0.00001145","MEAN_ANOMALY":"290.1932","PERIAPSIS":"546.150","OBJECT_ID":"2021-009BL","ECCENTRICITY":"0.00015420","MEAN_MOTION_DDOT":"0.0000000000000","ELEMENT_SET_NO":"999","DECAY_DATE":null,"FILE":"3405839","GP_ID":"201494386","INCLINATION":"53.0551","MEAN_ELEMENT_THEORY":"SGP4","SITE":"AFETR","CLASSIFICATION_TYPE":"U","OBJECT_NAME":"STARLINK-2024","RCS_SIZE":"LARGE","EPHEMERIS_TYPE":"0","RA_OF_ASC_NODE":"274.5162","ARG_OF_PERICENTER":"69.9223","OBJECT_TYPE":"PAYLOAD","TLE_LINE1":"1 47606U 21009BL  22107.84973381  .00001145  00000-0  95782-4 0  9996","EPOCH":"2022-04-17T20:23:37.001184"},{"APOAPSIS":"548.670","NORAD_CAT_ID":"47607","LAUNCH_DATE":"2021-02-04","TIME_SYSTEM":"UTC","SEMIMAJOR_AXIS":"6925.390","REV_AT_EPOCH":"6661","MEAN_MOTION":"15.06386430","BSTAR":"0.00161590000000","TLE_LINE2":"2 47607  53.0549 274.9018 0002043  47.7140 312.4022 15.06386430 66614","CENTER_NAME":"EARTH","COUNTRY_CODE":"US","PERIOD":"95.593","REF_FRAME":"TEME","MEAN_MOTION_DOT":"0.00023861","MEAN_ANOMALY":"312.4022","PERIAPSIS":"545.840","OBJECT_ID":"2021-009BM","MEAN_MOTION_DDOT":"0.0000000000000","ECCENTRICITY":"0.00020430","ELEMENT_SET_NO":"999","GP_ID":"201494636","FILE":"3405839","DECAY_DATE":null,"MEAN_ELEMENT_THEORY":"SGP4","INCLINATION":"53.0549","SITE":"AFETR","CLASSIFICATION_TYPE":"U","OBJECT_NAME":"STARLINK-2025","RCS_SIZE":"LARGE","EPHEMERIS_TYPE":"0","OBJECT_TYPE":"PAYLOAD","RA_OF_ASC_NODE":"274.9018","ARG_OF_PERICENTER":"47.7140","EPOCH":"2022-04-17T18:16:13.963008","TLE_LINE1":"1 47607U 21009BM  22107.76127272  .00023861  00000-0  16159-2 0  9996"},{"REV_AT_EPOCH":"6568","SEMIMAJOR_AXIS":"6925.372","TIME_SYSTEM":"UTC","LAUNCH_DATE":"2021-02-16","APOAPSIS":"548.421","NORAD_CAT_ID":"47620","BSTAR":"-0.00001988300000","MEAN_MOTION":"15.06392501","CENTER_NAME":"EARTH","TLE_LINE2":"2 47620  53.0547 334.2321 0001710  68.3411 291.7760 15.06392501 65684","MEAN_MOTION_DOT":"-0.00000578","REF_FRAME":"TEME","PERIOD":"95.593","COUNTRY_CODE":"US","ECCENTRICITY":"0.00017100","MEAN_MOTION_DDOT":"0.0000000000000","OBJECT_ID":"2021-012A","PERIAPSIS":"546.052","MEAN_ANOMALY":"291.7760","INCLINATION":"53.0547","MEAN_ELEMENT_THEORY":"SGP4","DECAY_DATE":null,"FILE":"3405839","GP_ID":"201496128","ELEMENT_SET_NO":"999","RCS_SIZE":"LARGE","OBJECT_NAME":"STARLINK-1528","CLASSIFICATION_TYPE":"U","SITE":"AFETR","TLE_LINE1":"1 47620U 21012A   22107.91054483 -.00000578  00000-0 -19883-4 0  9996","EPOCH":"2022-04-17T21:51:11.073312","RA_OF_ASC_NODE":"334.2321","ARG_OF_PERICENTER":"68.3411","OBJECT_TYPE":"PAYLOAD","EPHEMERIS_TYPE":"0"},{"CENTER_NAME":"EARTH","TLE_LINE2":"2 47621  53.0533 334.2764 0001592  57.9697 302.1446 15.06387957 65697","REF_FRAME":"TEME","MEAN_MOTION_DOT":"0.00022944","COUNTRY_CODE":"US","PERIOD":"95.593","REV_AT_EPOCH":"6569","SEMIMAJOR_AXIS":"6925.385","APOAPSIS":"548.353","NORAD_CAT_ID":"47621","LAUNCH_DATE":"2021-02-16","TIME_SYSTEM":"UTC","BSTAR":"0.00155470000000","MEAN_MOTION":"15.06387957","OBJECT_NAME":"STARLINK-1609","RCS_SIZE":"LARGE","SITE":"AFETR","CLASSIFICATION_TYPE":"U","EPOCH":"2022-04-17T21:40:35.513184","TLE_LINE1":"1 47621U 21012B   22107.90318881  .00022944  00000-0  15547-2 0  9991","EPHEMERIS_TYPE":"0","RA_OF_ASC_NODE":"334.2764","ARG_OF_PERICENTER":"57.9697","OBJECT_TYPE":"PAYLOAD","OBJECT_ID":"2021-012B","ECCENTRICITY":"0.00015920","MEAN_MOTION_DDOT":"0.0000000000000","MEAN_ANOMALY":"302.1446","PERIAPSIS":"546.148","FILE":"3405839","DECAY_DATE":null,"GP_ID":"201494387","INCLINATION":"53.0533","MEAN_ELEMENT_THEORY":"SGP4","ELEMENT_SET_NO":"999"},{"MEAN_MOTION":"15.06402350","BSTAR":"0.00165190000000","APOAPSIS":"548.213","NORAD_CAT_ID":"47622","TIME_SYSTEM":"UTC","LAUNCH_DATE":"2021-02-16","REV_AT_EPOCH":"6568","SEMIMAJOR_AXIS":"6925.341","COUNTRY_CODE":"US","PERIOD":"95.592","REF_FRAME":"TEME","MEAN_MOTION_DOT":"0.00024411","TLE_LINE2":"2 47622  53.0549 334.2812 0001453  55.3203 304.7923 15.06402350 65682","CENTER_NAME":"EARTH","ELEMENT_SET_NO":"999","GP_ID":"201494637","FILE":"3405839","DECAY_DATE":null,"MEAN_ELEMENT_THEORY":"SGP4","INCLINATION":"53.0549","MEAN_ANOMALY":"304.7923","PERIAPSIS":"546.200","OBJECT_ID":"2021-012C","MEAN_MOTION_DDOT":"0.0000000000000","ECCENTRICITY":"0.00014530","EPHEMERIS_TYPE":"0","OBJECT_TYPE":"PAYLOAD","ARG_OF_PERICENTER":"55.3203","RA_OF_ASC_NODE":"334.2812","TLE_LINE1":"1 47622U 21012C   22107.89949221  .00024411  00000-0  16519-2 0  9999","EPOCH":"2022-04-17T21:35:16.126944","SITE":"AFETR","CLASSIFICATION_TYPE":"U","OBJECT_NAME":"STARLINK-1645","RCS_SIZE":"LARGE"},{"TLE_LINE2":"2 47623  53.0560 269.5344 0001582  60.3630 299.7516 15.06393623 66593","CENTER_NAME":"EARTH","PERIOD":"95.593","COUNTRY_CODE":"US","MEAN_MOTION_DOT":"0.00000060","REF_FRAME":"TEME","LAUNCH_DATE":"2021-02-16","TIME_SYSTEM":"UTC","APOAPSIS":"548.329","NORAD_CAT_ID":"47623","REV_AT_EPOCH":"6659","SEMIMAJOR_AXIS":"6925.368","MEAN_MOTION":"15.06393623","BSTAR":"0.00002292100000","CLASSIFICATION_TYPE":"U","SITE":"AFETR","RCS_SIZE":"LARGE","OBJECT_NAME":"STARLINK-1655","OBJECT_TYPE":"PAYLOAD","ARG_OF_PERICENTER":"60.3630","RA_OF_ASC_NODE":"269.5344","EPHEMERIS_TYPE":"0","EPOCH":"2022-04-17T20:16:19.097472","TLE_LINE1":"1 47623U 21012D   22107.84466548  .00000060  00000-0  22921-4 0  9991","PERIAPSIS":"546.138","MEAN_ANOMALY":"299.7516","MEAN_MOTION_DDOT":"0.0000000000000","ECCENTRICITY":"0.00015820","OBJECT_ID":"2021-012D","ELEMENT_SET_NO":"999","MEAN_ELEMENT_THEORY":"SGP4","INCLINATION":"53.0560","GP_ID":"201495880","DECAY_DATE":null,"FILE":"3405839"},{"APOAPSIS":"548.232","NORAD_CAT_ID":"47624","TIME_SYSTEM":"UTC","LAUNCH_DATE":"2021-02-16","REV_AT_EPOCH":"6597","SEMIMAJOR_AXIS":"6925.380","MEAN_MOTION":"15.06389774","BSTAR":"-0.00008627300000","TLE_LINE2":"2 47624  53.0564 314.5646 0001425  65.1515 294.9622 15.06389774 65973","CENTER_NAME":"EARTH","COUNTRY_CODE":"US","PERIOD":"95.593","REF_FRAME":"TEME","MEAN_MOTION_DOT":"-0.00001566","MEAN_ANOMALY":"294.9622","PERIAPSIS":"546.258","OBJECT_ID":"2021-012E","MEAN_MOTION_DDOT":"0.0000000000000","ECCENTRICITY":"0.00014250","ELEMENT_SET_NO":"999","GP_ID":"201495637","DECAY_DATE":null,"FILE":"3405839","MEAN_ELEMENT_THEORY":"SGP4","INCLINATION":"53.0564","SITE":"AFETR","CLASSIFICATION_TYPE":"U","OBJECT_NAME":"STARLINK-1669","RCS_SIZE":"LARGE","EPHEMERIS_TYPE":"0","OBJECT_TYPE":"PAYLOAD","RA_OF_ASC_NODE":"314.5646","ARG_OF_PERICENTER":"65.1515","TLE_LINE1":"1 47624U 21012E   22107.83868025 -.00001566  00000-0 -86273-4 0  9991","EPOCH":"2022-04-17T20:07:41.973600"},{"REF_FRAME":"TEME","MEAN_MOTION_DOT":"0.00002406","COUNTRY_CODE":"US","PERIOD":"95.593","CENTER_NAME":"EARTH","TLE_LINE2":"2 47625  53.0549 334.2584 0001521  73.3742 286.7414 15.06393358 65686","BSTAR":"0.00018038000000","MEAN_MOTION":"15.06393358","SEMIMAJOR_AXIS":"6925.369","REV_AT_EPOCH":"6568","NORAD_CAT_ID":"47625","APOAPSIS":"548.287","TIME_SYSTEM":"UTC","LAUNCH_DATE":"2021-02-16","EPOCH":"2022-04-17T21:45:53.157600","TLE_LINE1":"1 47625U 21012F   22107.90686525  .00002406  00000-0  18038-3 0  9998","EPHEMERIS_TYPE":"0","OBJECT_TYPE":"PAYLOAD","RA_OF_ASC_NODE":"334.2584","ARG_OF_PERICENTER":"73.3742","OBJECT_NAME":"STARLINK-1704","RCS_SIZE":"LARGE","SITE":"AFETR","CLASSIFICATION_TYPE":"U","GP_ID":"201494879","DECAY_DATE":null,"FILE":"3405839","MEAN_ELEMENT_THEORY":"SGP4","INCLINATION":"53.0549","ELEMENT_SET_NO":"999","OBJECT_ID":"2021-012F","MEAN_MOTION_DDOT":"0.0000000000000","ECCENTRICITY":"0.00015210","MEAN_ANOMALY":"286.7414","PERIAPSIS":"546.181"}];
